CCSDS_OMM_VERS = 2.0
CREATION_DATE  = 
ORIGINATOR     = 

OBJECT_NAME    = SL-16 R/B
OBJECT_ID      = 1998-043G
CENTER_NAME    = EARTH
REF_FRAME      = TEME
TIME_SYSTEM    = UTC
MEAN_ELEMENT_THEORY = SGP/SGP4

EPOCH          = 2025-12-22T19:57:57.646080
MEAN_MOTION    = 14.26027684
ECCENTRICITY   = .00089196
INCLINATION    = 98.8141
RA_OF_ASC_NODE = 304.7071
ARG_OF_PERICENTER = 234.0317
MEAN_ANOMALY   = 126.0036

EPHEMERIS_TYPE = 0
CLASSIFICATION_TYPE = U
NORAD_CAT_ID   = 25400
ELEMENT_SET_NO = 999
REV_AT_EPOCH   = 42803
BSTAR          = .37289851E-4
MEAN_MOTION_DOT = .44E-6
MEAN_MOTION_DDOT = 0

CCSDS_OMM_VERS = 2.0
CREATION_DATE  = 
ORIGINATOR     = 

OBJECT_NAME    = SL-16 R/B
OBJECT_ID      = 1998-045B
CENTER_NAME    = EARTH
REF_FRAME      = TEME
TIME_SYSTEM    = UTC
MEAN_ELEMENT_THEORY = SGP/SGP4

EPOCH          = 2025-12-23T05:14:40.744032
MEAN_MOTION    = 14.16176749
ECCENTRICITY   = .00063458
INCLINATION    = 71.0118
RA_OF_ASC_NODE = 342.3895
ARG_OF_PERICENTER = 159.2889
MEAN_ANOMALY   = 200.8493

EPHEMERIS_TYPE = 0
CLASSIFICATION_TYPE = U
NORAD_CAT_ID   = 25407
ELEMENT_SET_NO = 999
REV_AT_EPOCH   = 41627
BSTAR          = .16424863E-3
MEAN_MOTION_DOT = .277E-5
MEAN_MOTION_DDOT = 0

CCSDS_OMM_VERS = 2.0
CREATION_DATE  = 
ORIGINATOR     = 

OBJECT_NAME    = ISS (ZARYA)
OBJECT_ID      = 1998-067A
CENTER_NAME    = EARTH
REF_FRAME      = TEME
TIME_SYSTEM    = UTC
MEAN_ELEMENT_THEORY = SGP/SGP4

EPOCH          = 2025-12-23T04:21:36.091008
MEAN_MOTION    = 15.49746572
ECCENTRICITY   = .00031904
INCLINATION    = 51.6323
RA_OF_ASC_NODE = 90.7678
ARG_OF_PERICENTER = 289.6661
MEAN_ANOMALY   = 70.3984

EPHEMERIS_TYPE = 0
CLASSIFICATION_TYPE = U
NORAD_CAT_ID   = 25544
ELEMENT_SET_NO = 999
REV_AT_EPOCH   = 54447
BSTAR          = .21350548E-3
MEAN_MOTION_DOT = .11641E-3
MEAN_MOTION_DDOT = 0

CCSDS_OMM_VERS = 2.0
CREATION_DATE  = 
ORIGINATOR     = 

OBJECT_NAME    = CZ-4B R/B
OBJECT_ID      = 1999-025C
CENTER_NAME    = EARTH
REF_FRAME      = TEME
TIME_SYSTEM    = UTC
MEAN_ELEMENT_THEORY = SGP/SGP4

EPOCH          = 2025-12-23T02:42:17.939232
MEAN_MOTION    = 14.18246175
ECCENTRICITY   = .00367392
INCLINATION    = 98.6754
RA_OF_ASC_NODE = 38.1601
ARG_OF_PERICENTER = 203.6694
MEAN_ANOMALY   = 180.4969

EPHEMERIS_TYPE = 0
CLASSIFICATION_TYPE = U
NORAD_CAT_ID   = 25732
ELEMENT_SET_NO = 999
REV_AT_EPOCH   = 37731
BSTAR          = .52988265E-4
MEAN_MOTION_DOT = .67E-6
MEAN_MOTION_DDOT = 0

CCSDS_OMM_VERS = 2.0
CREATION_DATE  = 
ORIGINATOR     = 

OBJECT_NAME    = OKEAN-O
OBJECT_ID      = 1999-039A
CENTER_NAME    = EARTH
REF_FRAME      = TEME
TIME_SYSTEM    = UTC
MEAN_ELEMENT_THEORY = SGP/SGP4

EPOCH          = 2025-12-23T03:10:48.692928
MEAN_MOTION    = 14.80178835
ECCENTRICITY   = .00010636
INCLINATION    = 97.9587
RA_OF_ASC_NODE = 52.7437
ARG_OF_PERICENTER = 113.0886
MEAN_ANOMALY   = 247.0438

EPHEMERIS_TYPE = 0
CLASSIFICATION_TYPE = U
NORAD_CAT_ID   = 25860
ELEMENT_SET_NO = 999
REV_AT_EPOCH   = 42306
BSTAR          = .10323623E-3
MEAN_MOTION_DOT = .732E-5
MEAN_MOTION_DDOT = 0

CCSDS_OMM_VERS = 2.0
CREATION_DATE  = 
ORIGINATOR     = 

OBJECT_NAME    = SL-16 R/B
OBJECT_ID      = 1999-039B
CENTER_NAME    = EARTH
REF_FRAME      = TEME
TIME_SYSTEM    = UTC
MEAN_ELEMENT_THEORY = SGP/SGP4

EPOCH          = 2025-12-23T02:49:22.564128
MEAN_MOTION    = 14.81600752
ECCENTRICITY   = .00156876
INCLINATION    = 98.0110
RA_OF_ASC_NODE = 51.2689
ARG_OF_PERICENTER = 141.9986
MEAN_ANOMALY   = 218.2336

EPHEMERIS_TYPE = 0
CLASSIFICATION_TYPE = U
NORAD_CAT_ID   = 25861
ELEMENT_SET_NO = 999
REV_AT_EPOCH   = 42552
BSTAR          = .81158111E-4
MEAN_MOTION_DOT = .585E-5
MEAN_MOTION_DDOT = 0

CCSDS_OMM_VERS = 2.0
CREATION_DATE  = 
ORIGINATOR     = 

OBJECT_NAME    = DELTA 2 R/B
OBJECT_ID      = 1999-041E
CENTER_NAME    = EARTH
REF_FRAME      = TEME
TIME_SYSTEM    = UTC
MEAN_ELEMENT_THEORY = SGP/SGP4

EPOCH          = 2025-12-23T02:56:27.528576
MEAN_MOTION    = 14.11427084
ECCENTRICITY   = .0504482
INCLINATION    = 51.7605
RA_OF_ASC_NODE = 246.9983
ARG_OF_PERICENTER = 122.3661
MEAN_ANOMALY   = 242.7134

EPHEMERIS_TYPE = 0
CLASSIFICATION_TYPE = U
NORAD_CAT_ID   = 25876
ELEMENT_SET_NO = 999
REV_AT_EPOCH   = 35221
BSTAR          = .1774302E-3
MEAN_MOTION_DOT = .855E-5
MEAN_MOTION_DDOT = 0

CCSDS_OMM_VERS = 2.0
CREATION_DATE  = 
ORIGINATOR     = 

OBJECT_NAME    = HELIOS 1B
OBJECT_ID      = 1999-064A
CENTER_NAME    = EARTH
REF_FRAME      = TEME
TIME_SYSTEM    = UTC
MEAN_ELEMENT_THEORY = SGP/SGP4

EPOCH          = 2025-12-23T03:56:17.909088
MEAN_MOTION    = 14.87320967
ECCENTRICITY   = .00010986
INCLINATION    = 98.1756
RA_OF_ASC_NODE = 252.1389
ARG_OF_PERICENTER = 31.6806
MEAN_ANOMALY   = 328.4475

EPHEMERIS_TYPE = 0
CLASSIFICATION_TYPE = U
NORAD_CAT_ID   = 25977
ELEMENT_SET_NO = 999
REV_AT_EPOCH   = 67388
BSTAR          = .19677258E-3
MEAN_MOTION_DOT = .1718E-4
MEAN_MOTION_DDOT = 0

CCSDS_OMM_VERS = 2.0
CREATION_DATE  = 
ORIGINATOR     = 

OBJECT_NAME    = TERRA
OBJECT_ID      = 1999-068A
CENTER_NAME    = EARTH
REF_FRAME      = TEME
TIME_SYSTEM    = UTC
MEAN_ELEMENT_THEORY = SGP/SGP4

EPOCH          = 2025-12-23T03:34:58.492704
MEAN_MOTION    = 14.60913060
ECCENTRICITY   = .00034695
INCLINATION    = 97.9733
RA_OF_ASC_NODE = 48.4510
ARG_OF_PERICENTER = 73.6837
MEAN_ANOMALY   = 10.8270

EPHEMERIS_TYPE = 0
CLASSIFICATION_TYPE = U
NORAD_CAT_ID   = 25994
ELEMENT_SET_NO = 999
REV_AT_EPOCH   = 38390
BSTAR          = .10325752E-3
MEAN_MOTION_DOT = .461E-5
MEAN_MOTION_DDOT = 0

CCSDS_OMM_VERS = 2.0
CREATION_DATE  = 
ORIGINATOR     = 

OBJECT_NAME    = SL-16 R/B
OBJECT_ID      = 2000-006B
CENTER_NAME    = EARTH
REF_FRAME      = TEME
TIME_SYSTEM    = UTC
MEAN_ELEMENT_THEORY = SGP/SGP4

EPOCH          = 2025-12-22T22:21:17.489088
MEAN_MOTION    = 14.15808437
ECCENTRICITY   = .0018578
INCLINATION    = 71.0016
RA_OF_ASC_NODE = 259.2287
ARG_OF_PERICENTER = 294.7910
MEAN_ANOMALY   = 65.1280

EPHEMERIS_TYPE = 0
CLASSIFICATION_TYPE = U
NORAD_CAT_ID   = 26070
ELEMENT_SET_NO = 999
REV_AT_EPOCH   = 33769
BSTAR          = .3331E-4
MEAN_MOTION_DOT = .18E-6
MEAN_MOTION_DDOT = 0

CCSDS_OMM_VERS = 2.0
CREATION_DATE  = 
ORIGINATOR     = 

OBJECT_NAME    = TITAN 4B R/B
OBJECT_ID      = 2000-047B
CENTER_NAME    = EARTH
REF_FRAME      = TEME
TIME_SYSTEM    = UTC
MEAN_ELEMENT_THEORY = SGP/SGP4

EPOCH          = 2025-12-23T02:01:31.073088
MEAN_MOTION    = 15.08851391
ECCENTRICITY   = .00381724
INCLINATION    = 67.9894
RA_OF_ASC_NODE = 255.8015
ARG_OF_PERICENTER = 132.0387
MEAN_ANOMALY   = 228.4022

EPHEMERIS_TYPE = 0
CLASSIFICATION_TYPE = U
NORAD_CAT_ID   = 26474
ELEMENT_SET_NO = 999
REV_AT_EPOCH   = 38135
BSTAR          = .23846576E-3
MEAN_MOTION_DOT = .3692E-4
MEAN_MOTION_DDOT = 0

CCSDS_OMM_VERS = 2.0
CREATION_DATE  = 
ORIGINATOR     = 

OBJECT_NAME    = ENVISAT
OBJECT_ID      = 2002-009A
CENTER_NAME    = EARTH
REF_FRAME      = TEME
TIME_SYSTEM    = UTC
MEAN_ELEMENT_THEORY = SGP/SGP4

EPOCH          = 2025-12-18T22:44:27.718656
MEAN_MOTION    = 14.39001403
ECCENTRICITY   = .0001126
INCLINATION    = 98.3609
RA_OF_ASC_NODE = 303.5309
ARG_OF_PERICENTER = 84.8976
MEAN_ANOMALY   = 298.2993

EPHEMERIS_TYPE = 0
CLASSIFICATION_TYPE = U
NORAD_CAT_ID   = 27386
ELEMENT_SET_NO = 999
REV_AT_EPOCH   = 24756
BSTAR          = .39999337E-4
MEAN_MOTION_DOT = .81E-6
MEAN_MOTION_DDOT = 0

