SL-16 R/B               
1 25400U 98043G   25356.83191720  .00000044  00000+0  37290-4 0  9999
2 25400  98.8141 304.7071 0008919 234.0317 126.0036 14.26027684428038
SL-16 R/B               
1 25407U 98045B   25357.21852713  .00000277  00000+0  16425-3 0  9991
2 25407  71.0118 342.3895 0006345 159.2889 200.8493 14.16176749416274
ISS (ZARYA)             
1 25544U 98067A   25357.18166772  .00011641  00000+0  21351-3 0  9997
2 25544  51.6323  90.7678 0003190 289.6661  70.3984 15.49746572544475
CZ-4B R/B               
1 25732U 99025C   25357.11270763  .00000067  00000+0  52988-4 0  9991
2 25732  98.6754  38.1601 0036739 203.6694 180.4969 14.18246175377314
OKEAN-O                 
1 25860U 99039A   25357.13250802  .00000732  00000+0  10324-3 0  9998
2 25860  97.9587  52.7437 0001063 113.0886 247.0438 14.80178835423061
SL-16 R/B               
1 25861U 99039B   25357.11762227  .00000585  00000+0  81158-4 0  9996
2 25861  98.0110  51.2689 0015687 141.9986 218.2336 14.81600752425526
DELTA 2 R/B             
1 25876U 99041E   25357.12254084  .00000855  00000+0  17743-3 0  9991
2 25876  51.7605 246.9983 0504482 122.3661 242.7134 14.11427084352217
HELIOS 1B               
1 25977U 99064A   25357.16409617  .00001718  00000+0  19677-3 0  9993
2 25977  98.1756 252.1389 0001098  31.6806 328.4475 14.87320967673882
TERRA                   
1 25994U 99068A   25357.14928811  .00000461  00000+0  10326-3 0  9992
2 25994  97.9733  48.4510 0003469  73.6837  10.8270 14.60913060383908
SL-16 R/B               
1 26070U 00006B   25356.93145242  .00000018  00000+0  33310-4 0  9994
2 26070  71.0016 259.2287 0018578 294.7910  65.1280 14.15808437337699
TITAN 4B R/B            
1 26474U 00047B   25357.08438742  .00003692  00000+0  23847-3 0  9998
2 26474  67.9894 255.8015 0038172 132.0387 228.4022 15.08851391381350
ENVISAT                 
1 27386U 02009A   25352.94754304  .00000081  00000+0  39999-4 0  9991
2 27386  98.3609 303.5309 0001126  84.8976 298.2993 14.39001403247569
